0 SL-14 R/B
1 20671U 90057B   13282.36709988  .00000015  00000-0 -11807-6 0  7823
2 20671 082.5504 002.6435 0016387 137.6852 267.7383 13.84559968176692
0 SL-14 R/B
1 20671U 90057B   13283.54017137  .00000016  00000-0  62063-6 0  7833
2 20671 082.5504 001.7114 0016421 134.6418 354.5626 13.84559859176852
0 SL-14 R/B
1 20671U 90057B   13286.19915281  .00000052  00000-0  33043-4 0  7850
2 20671 082.5501 359.5988 0016500 127.6805 287.5241 13.84559732177222
0 SL-14 R/B
1 20671U 90057B   13287.35830766  .00000046  00000-0  27288-4 0  7861
2 20671 082.5498 358.6779 0016514 124.6939 304.9638 13.84559683177381
0 SL-14 R/B
1 20671U 90057B   13288.44323507  .00000051  00000-0  31835-4 0  7872
2 20671 082.5496 357.8159 0016515 121.8734 312.4653 13.84559805177539
0 SL-14 R/B
1 20671U 90057B   13289.45542352  .00000056  00000-0  36920-4 0  7881
2 20671 082.5493 357.0117 0016550 119.2435 317.4200 13.84559974177675
0 SL-14 R/B
1 20671U 90057B   13290.69084664  .00000051  00000-0  31900-4 0  7895
2 20671 082.5491 356.0301 0016557 116.0214 355.0337 13.84560065177845
0 SL-14 R/B
1 20671U 90057B   13292.19665425  .00000027  00000-0  10642-4 0  7907
2 20671 082.5488 354.8335 0016595 112.1399 300.2563 13.84560333178052
0 SL-14 R/B
1 20671U 90057B   13293.20849727  .00000026  00000-0  10106-4 0  7914
2 20671 082.5487 354.0293 0016597 109.5436 303.4578 13.84560510178193
0 SL-14 R/B
1 20671U 90057B   13294.52202012  .00000039  00000-0  20935-4 0  7926
2 20671 082.5487 352.9854 0016594 106.1920 010.2670 13.84560505178371
0 SL-14 R/B
1 20671U 90057B   13295.53206266  .00000021  00000-0  53790-5 0  7931
2 20671 082.5487 352.1827 0016592 103.5605 004.5348 13.84560399178517
